{
  "type": "FeatureCollection",
  "features": [
    {
      "type": "Feature",
      "properties": {
        "norad_id": 24946,
        "name": "IRIDIUM 33",
        "group": "iridium-33-debris",
        "lat": 78.21630214997901,
        "lon": -131.77436827222394,
        "alt_km": 766.7484101486289,
        "timestamp": "2025-12-18T08:58:43.799440+00:00",
        "meta_object_name": "IRIDIUM 33",
        "meta_object_id": "1997-051C",
        "meta_epoch": "2025-12-17T17:26:49.792416",
        "meta_mean_motion": 14.35040933,
        "meta_eccentricity": 0.00076325,
        "meta_inclination": 86.3868,
        "meta_ra_of_asc_node": 66.1284,
        "meta_arg_of_pericenter": 183.1964,
        "meta_mean_anomaly": 176.9185,
        "meta_ephemeris_type": 0,
        "meta_classification_type": "U",
        "meta_norad_cat_id": 24946,
        "meta_element_set_no": 999,
        "meta_rev_at_epoch": 47906,
        "meta_bstar": 9.4616572e-05,
        "meta_mean_motion_dot": 2.89e-06,
        "meta_mean_motion_ddot": 0,
        "tle_line1": "1 24946U 97051C   25351.72696519  .00000289  00000+0  94617-4 0  9997",
        "tle_line2": "2 24946  86.3868  66.1284 0007632 183.1964 176.9185 14.35040933479068"
      },
      "geometry": {
        "type": "Point",
        "coordinates": [
          -131.77436827222394,
          78.21630214997901
        ]
      }
    },
    {
      "type": "Feature",
      "properties": {
        "norad_id": 33773,
        "name": "IRIDIUM 33 DEB",
        "group": "iridium-33-debris",
        "lat": -44.982198011192274,
        "lon": -118.19146261718028,
        "alt_km": 755.3736277761518,
        "timestamp": "2025-12-18T08:58:43.799465+00:00",
        "meta_object_name": "IRIDIUM 33 DEB",
        "meta_object_id": "1997-051L",
        "meta_epoch": "2025-12-17T16:57:54.033696",
        "meta_mean_motion": 14.4326766,
        "meta_eccentricity": 0.0012911,
        "meta_inclination": 86.4007,
        "meta_ra_of_asc_node": 58.4847,
        "meta_arg_of_pericenter": 131.888,
        "meta_mean_anomaly": 228.3425,
        "meta_ephemeris_type": 0,
        "meta_classification_type": "U",
        "meta_norad_cat_id": 33773,
        "meta_element_set_no": 999,
        "meta_rev_at_epoch": 88419,
        "meta_bstar": 0.00024372163,
        "meta_mean_motion_dot": 8.41e-06,
        "meta_mean_motion_ddot": 0,
        "tle_line1": "1 33773U 97051L   25351.70687539  .00000841  00000+0  24372-3 0  9999",
        "tle_line2": "2 33773  86.4007  58.4847 0012911 131.8880 228.3425 14.43267660884194"
      },
      "geometry": {
        "type": "Point",
        "coordinates": [
          -118.19146261718028,
          -44.982198011192274
        ]
      }
    },
    {
      "type": "Feature",
      "properties": {
        "norad_id": 33775,
        "name": "IRIDIUM 33 DEB",
        "group": "iridium-33-debris",
        "lat": -85.71839892335183,
        "lon": -11.007850976163859,
        "alt_km": 768.5064083614379,
        "timestamp": "2025-12-18T08:58:43.799480+00:00",
        "meta_object_name": "IRIDIUM 33 DEB",
        "meta_object_id": "1997-051N",
        "meta_epoch": "2025-12-17T15:38:54.873600",
        "meta_mean_motion": 14.41478888,
        "meta_eccentricity": 0.00147915,
        "meta_inclination": 86.3633,
        "meta_ra_of_asc_node": 47.4565,
        "meta_arg_of_pericenter": 139.7829,
        "meta_mean_anomaly": 347.5614,
        "meta_ephemeris_type": 0,
        "meta_classification_type": "U",
        "meta_norad_cat_id": 33775,
        "meta_element_set_no": 999,
        "meta_rev_at_epoch": 88211,
        "meta_bstar": 0.00025546522,
        "meta_mean_motion_dot": 8.5e-06,
        "meta_mean_motion_ddot": 0,
        "tle_line1": "1 33775U 97051N   25351.65202400  .00000850  00000+0  25547-3 0  9990",
        "tle_line2": "2 33775  86.3633  47.4565 0014791 139.7829 347.5614 14.41478888882111"
      },
      "geometry": {
        "type": "Point",
        "coordinates": [
          -11.007850976163859,
          -85.71839892335183
        ]
      }
    },
    {
      "type": "Feature",
      "properties": {
        "norad_id": 33776,
        "name": "IRIDIUM 33 DEB",
        "group": "iridium-33-debris",
        "lat": 75.66514410722891,
        "lon": 92.65699727442652,
        "alt_km": 758.2930783838829,
        "timestamp": "2025-12-18T08:58:43.799517+00:00",
        "meta_object_name": "IRIDIUM 33 DEB",
        "meta_object_id": "1997-051P",
        "meta_epoch": "2025-12-17T18:11:14.951616",
        "meta_mean_motion": 14.38243892,
        "meta_eccentricity": 0.00149517,
        "meta_inclination": 86.4037,
        "meta_ra_of_asc_node": 78.6687,
        "meta_arg_of_pericenter": 174.003,
        "meta_mean_anomaly": 313.2973,
        "meta_ephemeris_type": 0,
        "meta_classification_type": "U",
        "meta_norad_cat_id": 33776,
        "meta_element_set_no": 999,
        "meta_rev_at_epoch": 88154,
        "meta_bstar": 0.00022372109,
        "meta_mean_motion_dot": 7e-06,
        "meta_mean_motion_ddot": 0,
        "tle_line1": "1 33776U 97051P   25351.75781194  .00000700  00000+0  22372-3 0  9991",
        "tle_line2": "2 33776  86.4037  78.6687 0014951 174.0030 313.2973 14.38243892881541"
      },
      "geometry": {
        "type": "Point",
        "coordinates": [
          92.65699727442652,
          75.66514410722891
        ]
      }
    },
    {
      "type": "Feature",
      "properties": {
        "norad_id": 33777,
        "name": "IRIDIUM 33 DEB",
        "group": "iridium-33-debris",
        "lat": -36.35222602447087,
        "lon": -144.57538216839853,
        "alt_km": 709.7934788900184,
        "timestamp": "2025-12-18T08:58:43.799532+00:00",
        "meta_object_name": "IRIDIUM 33 DEB",
        "meta_object_id": "1997-051Q",
        "meta_epoch": "2025-12-17T20:26:20.611680",
        "meta_mean_motion": 14.55650268,
        "meta_eccentricity": 0.00055247,
        "meta_inclination": 86.3782,
        "meta_ra_of_asc_node": 32.98,
        "meta_arg_of_pericenter": 226.0144,
        "meta_mean_anomaly": 134.0609,
        "meta_ephemeris_type": 0,
        "meta_classification_type": "U",
        "meta_norad_cat_id": 33777,
        "meta_element_set_no": 999,
        "meta_rev_at_epoch": 88608,
        "meta_bstar": 0.00063602135,
        "meta_mean_motion_dot": 2.797e-05,
        "meta_mean_motion_ddot": 0,
        "tle_line1": "1 33777U 97051Q   25351.85162745  .00002797  00000+0  63602-3 0  9997",
        "tle_line2": "2 33777  86.3782  32.9800 0005524 226.0144 134.0609 14.55650268886085"
      },
      "geometry": {
        "type": "Point",
        "coordinates": [
          -144.57538216839853,
          -36.35222602447087
        ]
      }
    },
    {
      "type": "Feature",
      "properties": {
        "norad_id": 33850,
        "name": "IRIDIUM 33 DEB",
        "group": "iridium-33-debris",
        "lat": -85.20689884746251,
        "lon": -102.5068787213211,
        "alt_km": 763.8016032021342,
        "timestamp": "2025-12-18T08:58:43.799545+00:00",
        "meta_object_name": "IRIDIUM 33 DEB",
        "meta_object_id": "1997-051T",
        "meta_epoch": "2025-12-17T20:53:21.588000",
        "meta_mean_motion": 14.42157373,
        "meta_eccentricity": 0.00127776,
        "meta_inclination": 86.3413,
        "meta_ra_of_asc_node": 27.9734,
        "meta_arg_of_pericenter": 145.463,
        "meta_mean_anomaly": 27.7297,
        "meta_ephemeris_type": 0,
        "meta_classification_type": "U",
        "meta_norad_cat_id": 33850,
        "meta_element_set_no": 999,
        "meta_rev_at_epoch": 88226,
        "meta_bstar": 0.00027618964,
        "meta_mean_motion_dot": 9.29e-06,
        "meta_mean_motion_ddot": 0,
        "tle_line1": "1 33850U 97051T   25351.87038875  .00000929  00000+0  27619-3 0  9990",
        "tle_line2": "2 33850  86.3413  27.9734 0012777 145.4630  27.7297 14.42157373882262"
      },
      "geometry": {
        "type": "Point",
        "coordinates": [
          -102.5068787213211,
          -85.20689884746251
        ]
      }
    },
    {
      "type": "Feature",
      "properties": {
        "norad_id": 33853,
        "name": "IRIDIUM 33 DEB",
        "group": "iridium-33-debris",
        "lat": 44.68354057336326,
        "lon": 163.37237733689918,
        "alt_km": 872.5478886579194,
        "timestamp": "2025-12-18T08:58:43.799557+00:00",
        "meta_object_name": "IRIDIUM 33 DEB",
        "meta_object_id": "1997-051W",
        "meta_epoch": "2025-12-17T22:07:32.571264",
        "meta_mean_motion": 13.99091464,
        "meta_eccentricity": 0.02071243,
        "meta_inclination": 85.9999,
        "meta_ra_of_asc_node": 347.5388,
        "meta_arg_of_pericenter": 219.7969,
        "meta_mean_anomaly": 161.3659,
        "meta_ephemeris_type": 0,
        "meta_classification_type": "U",
        "meta_norad_cat_id": 33853,
        "meta_element_set_no": 999,
        "meta_rev_at_epoch": 85418,
        "meta_bstar": 0.0013890199,
        "meta_mean_motion_dot": 2.432e-05,
        "meta_mean_motion_ddot": 0,
        "tle_line1": "1 33853U 97051W   25351.92190476  .00002432  00000+0  13890-2 0  9991",
        "tle_line2": "2 33853  85.9999 347.5388 0207124 219.7969 161.3659 13.99091464854183"
      },
      "geometry": {
        "type": "Point",
        "coordinates": [
          163.37237733689918,
          44.68354057336326
        ]
      }
    }
  ]
}